IXPE                    
1 49954U 21121A   24257.91667824  .00019429  00000+0  14535-2 0  9995
2 49954   0.2298  93.6412 0009132 158.9044 102.9101 14.99878748151236
